ONEWEB-0538             
1 56047U 23043B   24029.47905360  .00000120  00000+0  27924-3 0  9994
2 56047  87.9037  41.8754 0002027  82.9719 277.1642 13.16595321 44535
ONEWEB-0546             
1 56048U 23043C   24029.46638269  .00000056  00000+0  11310-3 0  9995
2 56048  87.9038  41.8392 0000972  73.5504 286.5733 13.16595673 44524
ONEWEB-0547             
1 56049U 23043D   24029.49690512  .00000051  00000+0  91846-4 0  9996
2 56049  87.9205  57.0945 0002094  79.8887 280.2483 13.21825432 43330
ONEWEB-0548             
1 56050U 23043E   24029.49171225  .00000086  00000+0  19038-3 0  9993
2 56050  87.9040  41.8792 0001934 111.1860 248.9478 13.16595822 44521
ONEWEB-0549             
1 56051U 23043F   24029.48901265  .00000100  00000+0  20940-3 0  9999
2 56051  87.9205  57.0958 0002028  93.2501 266.8865 13.21826601 43330
ONEWEB-0550             
1 56052U 23043G   24029.47639920  .00000049  00000+0  87669-4 0  9999
2 56052  87.9202  57.1108 0002008  99.1304 261.0057 13.21824793 43330
ONEWEB-0551             
1 56053U 23043H   24029.51573297 -.00000059  00000+0 -18961-3 0  9990
2 56053  87.8962  72.3409 0002126  95.2910 264.8463 13.15546532 42052
ONEWEB-0552             
1 56054U 23043J   24029.47012754  .00000028  00000+0  36735-4 0  9996
2 56054  87.9202  57.1223 0002184  99.9009 260.2372 13.21817444 43331
